[{"OBJECT_NAME":"ONEWEB-0436","OBJECT_ID":"2022-012M","EPOCH":"2026-06-19T22:42:07.170048","MEAN_MOTION":13.17649543,"ECCENTRICITY":0.0001665,"INCLINATION":87.9141,"RA_OF_ASC_NODE":5.2969,"ARG_OF_PERICENTER":92.5867,"MEAN_ANOMALY":267.5455,"EPHEMERIS_TYPE":0,"CLASSIFICATION_TYPE":"U","NORAD_CAT_ID":51633,"ELEMENT_SET_NO":999,"REV_AT_EPOCH":21404,"BSTAR":-3.2654e-05,"MEAN_MOTION_DOT":0.0,"MEAN_MOTION_DDOT":0.0},{"OBJECT_NAME":"ONEWEB-0438","OBJECT_ID":"2022-012N","EPOCH":"2026-06-19T14:56:41.871840","MEAN_MOTION":13.10258071,"ECCENTRICITY":0.0001941,"INCLINATION":87.8827,"RA_OF_ASC_NODE":35.7959,"ARG_OF_PERICENTER":80.071,"MEAN_ANOMALY":280.0636,"EPHEMERIS_TYPE":0,"CLASSIFICATION_TYPE":"U","NORAD_CAT_ID":51634,"ELEMENT_SET_NO":999,"REV_AT_EPOCH":20966,"BSTAR":0.001603,"MEAN_MOTION_DOT":5.71e-06,"MEAN_MOTION_DDOT":0.0},{"OBJECT_NAME":"ONEWEB-0439","OBJECT_ID":"2022-012P","EPOCH":"2026-06-20T00:11:21.523200","MEAN_MOTION":13.10246957,"ECCENTRICITY":0.0001738,"INCLINATION":87.8824,"RA_OF_ASC_NODE":35.7068,"ARG_OF_PERICENTER":80.4464,"MEAN_ANOMALY":279.686,"EPHEMERIS_TYPE":0,"CLASSIFICATION_TYPE":"U","NORAD_CAT_ID":51635,"ELEMENT_SET_NO":999,"REV_AT_EPOCH":20969,"BSTAR":0.0013457,"MEAN_MOTION_DOT":4.82e-06,"MEAN_MOTION_DDOT":0.0},{"OBJECT_NAME":"ONEWEB-0442","OBJECT_ID":"2022-012Q","EPOCH":"2026-06-20T05:48:35.127072","MEAN_MOTION":13.176491,"ECCENTRICITY":0.0002334,"INCLINATION":87.9131,"RA_OF_ASC_NODE":5.2704,"ARG_OF_PERICENTER":80.4394,"MEAN_ANOMALY":279.7001,"EPHEMERIS_TYPE":0,"CLASSIFICATION_TYPE":"U","NORAD_CAT_ID":51636,"ELEMENT_SET_NO":999,"REV_AT_EPOCH":21407,"BSTAR":-0.00011381,"MEAN_MOTION_DOT":-3.1e-07,"MEAN_MOTION_DDOT":0.0},{"OBJECT_NAME":"ONEWEB-0443","OBJECT_ID":"2022-012R","EPOCH":"2026-06-19T13:52:23.000736","MEAN_MOTION":13.17649633,"ECCENTRICITY":0.0001707,"INCLINATION":87.9132,"RA_OF_ASC_NODE":5.4036,"ARG_OF_PERICENTER":77.8037,"MEAN_ANOMALY":282.3286,"EPHEMERIS_TYPE":0,"CLASSIFICATION_TYPE":"U","NORAD_CAT_ID":51637,"ELEMENT_SET_NO":999,"REV_AT_EPOCH":21403,"BSTAR":-6.6444e-05,"MEAN_MOTION_DOT":-1.3e-07,"MEAN_MOTION_DDOT":0.0},{"OBJECT_NAME":"ONEWEB-0444","OBJECT_ID":"2022-012S","EPOCH":"2026-06-19T14:47:02.488992","MEAN_MOTION":13.10291998,"ECCENTRICITY":0.0001703,"INCLINATION":87.8827,"RA_OF_ASC_NODE":35.7834,"ARG_OF_PERICENTER":77.0048,"MEAN_ANOMALY":283.1269,"EPHEMERIS_TYPE":0,"CLASSIFICATION_TYPE":"U","NORAD_CAT_ID":51638,"ELEMENT_SET_NO":999,"REV_AT_EPOCH":20965,"BSTAR":-0.0012542,"MEAN_MOTION_DOT":-4.25e-06,"MEAN_MOTION_DDOT":0.0},{"OBJECT_NAME":"ONEWEB-0445","OBJECT_ID":"2022-012T","EPOCH":"2026-06-20T04:06:59.170752","MEAN_MOTION":13.10507933,"ECCENTRICITY":0.000198,"INCLINATION":87.8836,"RA_OF_ASC_NODE":35.6611,"ARG_OF_PERICENTER":89.8411,"MEAN_ANOMALY":270.2943,"EPHEMERIS_TYPE":0,"CLASSIFICATION_TYPE":"U","NORAD_CAT_ID":51639,"ELEMENT_SET_NO":999,"REV_AT_EPOCH":20973,"BSTAR":0.00027336,"MEAN_MOTION_DOT":1.08e-06,"MEAN_MOTION_DDOT":0.0},{"OBJECT_NAME":"ONEWEB-0446","OBJECT_ID":"2022-012U","EPOCH":"2026-06-19T14:44:37.256640","MEAN_MOTION":13.10289962,"ECCENTRICITY":0.0001914,"INCLINATION":87.8828,"RA_OF_ASC_NODE":35.8007,"ARG_OF_PERICENTER":86.8053,"MEAN_ANOMALY":273.3293,"EPHEMERIS_TYPE":0,"CLASSIFICATION_TYPE":"U","NORAD_CAT_ID":51640,"ELEMENT_SET_NO":999,"REV_AT_EPOCH":20964,"BSTAR":0.0015025,"MEAN_MOTION_DOT":5.37e-06,"MEAN_MOTION_DDOT":0.0},{"OBJECT_NAME":"ONEWEB-0448","OBJECT_ID":"2022-012V","EPOCH":"2026-06-19T14:51:51.473664","MEAN_MOTION":13.10280512,"ECCENTRICITY":0.0001912,"INCLINATION":87.8826,"RA_OF_ASC_NODE":35.796,"ARG_OF_PERICENTER":84.0127,"MEAN_ANOMALY":276.1218,"EPHEMERIS_TYPE":0,"CLASSIFICATION_TYPE":"U","NORAD_CAT_ID":51641,"ELEMENT_SET_NO":999,"REV_AT_EPOCH":20961,"BSTAR":-0.0030228,"MEAN_MOTION_DOT":-1.041e-05,"MEAN_MOTION_DDOT":0.0},{"OBJECT_NAME":"ONEWEB-0449","OBJECT_ID":"2022-012W","EPOCH":"2026-06-19T14:59:06.673056","MEAN_MOTION":13.10250039,"ECCENTRICITY":0.0002129,"INCLINATION":87.8827,"RA_OF_ASC_NODE":35.7806,"ARG_OF_PERICENTER":73.6878,"MEAN_ANOMALY":286.4484,"EPHEMERIS_TYPE":0,"CLASSIFICATION_TYPE":"U","NORAD_CAT_ID":51642,"ELEMENT_SET_NO":999,"REV_AT_EPOCH":20962,"BSTAR":0.0012501,"MEAN_MOTION_DOT":4.48e-06,"MEAN_MOTION_DDOT":0.0},{"OBJECT_NAME":"ONEWEB-0451","OBJECT_ID":"2022-012X","EPOCH":"2026-06-19T22:37:16.548960","MEAN_MOTION":13.17649995,"ECCENTRICITY":0.0001962,"INCLINATION":87.9145,"RA_OF_ASC_NODE":5.2948,"ARG_OF_PERICENTER":82.492,"MEAN_ANOMALY":277.6434,"EPHEMERIS_TYPE":0,"CLASSIFICATION_TYPE":"U","NORAD_CAT_ID":51643,"ELEMENT_SET_NO":999,"REV_AT_EPOCH":21402,"BSTAR":3.8565e-05,"MEAN_MOTION_DOT":2.8e-07,"MEAN_MOTION_DDOT":0.0},{"OBJECT_NAME":"ONEWEB-0452","OBJECT_ID":"2022-012Y","EPOCH":"2026-06-19T22:34:49.723392","MEAN_MOTION":13.17649875,"ECCENTRICITY":0.0001834,"INCLINATION":87.9133,"RA_OF_ASC_NODE":5.3318,"ARG_OF_PERICENTER":78.4843,"MEAN_ANOMALY":281.6494,"EPHEMERIS_TYPE":0,"CLASSIFICATION_TYPE":"U","NORAD_CAT_ID":51644,"ELEMENT_SET_NO":999,"REV_AT_EPOCH":21403,"BSTAR":1.7046000000000002e-05,"MEAN_MOTION_DOT":1.9e-07,"MEAN_MOTION_DDOT":0.0},{"OBJECT_NAME":"ONEWEB-0456","OBJECT_ID":"2022-012AA","EPOCH":"2026-06-20T04:02:08.926368","MEAN_MOTION":13.10521499,"ECCENTRICITY":0.0001563,"INCLINATION":87.8837,"RA_OF_ASC_NODE":35.6599,"ARG_OF_PERICENTER":83.1853,"MEAN_ANOMALY":276.9452,"EPHEMERIS_TYPE":0,"CLASSIFICATION_TYPE":"U","NORAD_CAT_ID":51646,"ELEMENT_SET_NO":999,"REV_AT_EPOCH":20973,"BSTAR":0.0011248,"MEAN_MOTION_DOT":4.06e-06,"MEAN_MOTION_DDOT":0.0},{"OBJECT_NAME":"ONEWEB-0457","OBJECT_ID":"2022-012AB","EPOCH":"2026-06-19T14:39:35.501184","MEAN_MOTION":13.10305487,"ECCENTRICITY":0.0002198,"INCLINATION":87.8831,"RA_OF_ASC_NODE":35.7889,"ARG_OF_PERICENTER":87.1165,"MEAN_ANOMALY":273.0214,"EPHEMERIS_TYPE":0,"CLASSIFICATION_TYPE":"U","NORAD_CAT_ID":51647,"ELEMENT_SET_NO":999,"REV_AT_EPOCH":20966,"BSTAR":0.0017093,"MEAN_MOTION_DOT":6.09e-06,"MEAN_MOTION_DDOT":0.0},{"OBJECT_NAME":"ONEWEB-0458","OBJECT_ID":"2022-012AC","EPOCH":"2026-06-20T00:20:25.776672","MEAN_MOTION":13.10369327,"ECCENTRICITY":0.0001816,"INCLINATION":87.8833,"RA_OF_ASC_NODE":35.6964,"ARG_OF_PERICENTER":77.4134,"MEAN_ANOMALY":282.7196,"EPHEMERIS_TYPE":0,"CLASSIFICATION_TYPE":"U","NORAD_CAT_ID":51648,"ELEMENT_SET_NO":999,"REV_AT_EPOCH":20967,"BSTAR":0.00064193,"MEAN_MOTION_DOT":2.37e-06,"MEAN_MOTION_DDOT":0.0},{"OBJECT_NAME":"ONEWEB-0461","OBJECT_ID":"2022-012AD","EPOCH":"2026-06-20T06:23:48.911712","MEAN_MOTION":13.17648276,"ECCENTRICITY":0.0001962,"INCLINATION":87.9141,"RA_OF_ASC_NODE":5.2445,"ARG_OF_PERICENTER":90.284,"MEAN_ANOMALY":269.8517,"EPHEMERIS_TYPE":0,"CLASSIFICATION_TYPE":"U","NORAD_CAT_ID":51649,"ELEMENT_SET_NO":999,"REV_AT_EPOCH":21429,"BSTAR":-7.057500000000001e-05,"MEAN_MOTION_DOT":-1.5e-07,"MEAN_MOTION_DDOT":0.0},{"OBJECT_NAME":"ONEWEB-0463","OBJECT_ID":"2022-012AE","EPOCH":"2026-06-19T22:39:42.235776","MEAN_MOTION":13.17649489,"ECCENTRICITY":0.0001994,"INCLINATION":87.913,"RA_OF_ASC_NODE":5.3308,"ARG_OF_PERICENTER":91.0794,"MEAN_ANOMALY":269.0566,"EPHEMERIS_TYPE":0,"CLASSIFICATION_TYPE":"U","NORAD_CAT_ID":51650,"ELEMENT_SET_NO":999,"REV_AT_EPOCH":21403,"BSTAR":-1.3949000000000001e-05,"MEAN_MOTION_DOT":7e-08,"MEAN_MOTION_DDOT":0.0}]