ONEWEB-0436             
1 51633U 22012M   26170.94591632  .00000000  00000+0 -32654-4 0  9994
2 51633  87.9141   5.2969 0001665  92.5867 267.5455 13.17649543214044
ONEWEB-0438             
1 51634U 22012N   26170.62270685  .00000571  00000+0  16030-2 0  9992
2 51634  87.8827  35.7959 0001941  80.0710 280.0636 13.10258071209666
ONEWEB-0439             
1 51635U 22012P   26171.00788800  .00000482  00000+0  13457-2 0  9990
2 51635  87.8824  35.7068 0001738  80.4464 279.6860 13.10246957209695
ONEWEB-0442             
1 51636U 22012Q   26171.24207323 -.00000031  00000+0 -11381-3 0  9990
2 51636  87.9131   5.2704 0002334  80.4394 279.7001 13.17649100214072
ONEWEB-0443             
1 51637U 22012R   26170.57804399 -.00000013  00000+0 -66444-4 0  9993
2 51637  87.9132   5.4036 0001707  77.8037 282.3286 13.17649633214033
ONEWEB-0444             
1 51638U 22012S   26170.61600103 -.00000425  00000+0 -12542-2 0  9991
2 51638  87.8827  35.7834 0001703  77.0048 283.1269 13.10291998209658
ONEWEB-0445             
1 51639U 22012T   26171.17151818  .00000108  00000+0  27336-3 0  9992
2 51639  87.8836  35.6611 0001980  89.8411 270.2943 13.10507933209737
ONEWEB-0446             
1 51640U 22012U   26170.61432010  .00000537  00000+0  15025-2 0  9995
2 51640  87.8828  35.8007 0001914  86.8053 273.3293 13.10289962209648
ONEWEB-0448             
1 51641U 22012V   26170.61934576 -.00001041  00000+0 -30228-2 0  9995
2 51641  87.8826  35.7960 0001912  84.0127 276.1218 13.10280512209611
ONEWEB-0449             
1 51642U 22012W   26170.62438279  .00000448  00000+0  12501-2 0  9998
2 51642  87.8827  35.7806 0002129  73.6878 286.4484 13.10250039209621
ONEWEB-0451             
1 51643U 22012X   26170.94255265  .00000028  00000+0  38565-4 0  9990
2 51643  87.9145   5.2948 0001962  82.4920 277.6434 13.17649995214022
ONEWEB-0452             
1 51644U 22012Y   26170.94085328  .00000019  00000+0  17046-4 0  9993
2 51644  87.9133   5.3318 0001834  78.4843 281.6494 13.17649875214038
ONEWEB-0456             
1 51646U 22012AA  26171.16815887  .00000406  00000+0  11248-2 0  9997
2 51646  87.8837  35.6599 0001563  83.1853 276.9452 13.10521499209736
ONEWEB-0457             
1 51647U 22012AB  26170.61082756  .00000609  00000+0  17093-2 0  9997
2 51647  87.8831  35.7889 0002198  87.1165 273.0214 13.10305487209662
ONEWEB-0458             
1 51648U 22012AC  26171.01418723  .00000237  00000+0  64193-3 0  9991
2 51648  87.8833  35.6964 0001816  77.4134 282.7196 13.10369327209672
ONEWEB-0461             
1 51649U 22012AD  26171.26653833 -.00000015  00000+0 -70575-4 0  9990
2 51649  87.9141   5.2445 0001962  90.2840 269.8517 13.17648276214299
ONEWEB-0463             
1 51650U 22012AE  26170.94423884  .00000007  00000+0 -13949-4 0  9999
2 51650  87.9130   5.3308 0001994  91.0794 269.0566 13.17649489214035
